{
    "type": "FeatureCollection",
    "features": [
        {
            "type": "Feature",
            "id": "L100002062.1",
            "geometry": {
                "type": "Polygon",
                "coordinates": [
                    [
                        [
                            1.41207044129E7,
                            4505810.2778
                        ],
                        [
                            1.41208885379E7,
                            4505787.5486
                        ],
                        [
                            1.41208418632E7,
                            4505622.3089
                        ],
                        [
                            1.41209158617E7,
                            4505592.5527
                        ],
                        [
                            1.41208536556E7,
                            4505418.8586
                        ],
                        [
                            1.41207057179E7,
                            4505470.0191
                        ],
                        [
                            1.4120685263E7,
                            4505421.8646
                        ],
                        [
                            1.4120757146E7,
                            4505397.3141
                        ],
                        [
                            1.41207316384E7,
                            4505328.2502
                        ],
                        [
                            1.4120580562E7,
                            4505382.5179
                        ],
                        [
                            1.41207102208E7,
                            4505721.597
                        ],
                        [
                            1.41206868452E7,
                            4505795.5427
                        ],
                        [
                            1.41207044129E7,
                            4505810.2778
                        ]
                    ]
                ]
            },
            "geometry_name": "geom",
            "properties": {
                "name": "재개발구역"
            }
        }
    ],
    "totalFeatures": 1,
    "numberMatched": 1,
    "numberReturned": 1,
    "timeStamp": "2026-02-10T00:07:16.894Z",
    "crs": {
        "type": "name",
        "properties": {
            "name": "urn:ogc:def:crs:EPSG::3857"
        }
    }
}