{
  "type": "Topology",
  "objects": {
    "shader_demo": {
      "type": "GeometryCollection",
      "geometries": [
        {
          "type": "Polygon",
          "id": "L100002062.1",
          "arcs": [[0]],
          "properties": {
            "name": "재개발구역"
          }
        },
        {
          "type": "Polygon",
          "id": "sample-rect-01",
          "arcs": [[1]],
          "properties": {
            "name": "rectangle-sample"
          }
        }
      ]
    }
  },
  "arcs": [
    [
      [14120704.4129, 4505810.2778],
      [14120888.5379, 4505787.5486],
      [14120841.8632, 4505622.3089],
      [14120915.8617, 4505592.5527],
      [14120853.6556, 4505418.8586],
      [14120705.7179, 4505470.0191],
      [14120685.263, 4505421.8646],
      [14120757.146, 4505397.3141],
      [14120731.6384, 4505328.2502],
      [14120580.562, 4505382.5179],
      [14120710.2208, 4505721.597],
      [14120686.8452, 4505795.5427],
      [14120704.4129, 4505810.2778]
    ],
    [
      [14120980.0, 4505660.0],
      [14121140.0, 4505660.0],
      [14121140.0, 4505540.0],
      [14120980.0, 4505540.0],
      [14120980.0, 4505660.0]
    ]
  ]
}

// use transform version
{
  "type": "Topology",
  "transform": {
    "scale": [0.001, 0.001],
    "translate": [14120580.562, 4505328.2502]
  },
  "objects": {
    "shader_demo": {
      "type": "GeometryCollection",
      "geometries": [
        {
          "type": "Polygon",
          "id": "L100002062.1",
          "arcs": [[0]],
          "properties": {
            "name": "재개발구역"
          }
        }
      ]
    }
  },
  "arcs": [
    [
      [123851, 482028],
      [184125, -22730],
      [-46675, -165239],
      [73999, -29756],
      [-62206, -173695],
      [-147938, 51161],
      [-20455, -48155],
      [71883, -24550],
      [-25508, -69064],
      [-151076, 54268],
      [129659, 339079],
      [-23376, 73946],
      [17568, 14735]
    ]
  ]
}

