<kml xmlns="http://www.opengis.net/kml/2.2" xmlns:gx="http://www.google.com/kml/ext/2.2" xmlns:xsi="http://www.w3.org/2001/XMLSchema-instance" xsi:schemaLocation="http://www.opengis.net/kml/2.2 https://developers.google.com/kml/schema/kml22gx.xsd"><Document><Placemark id="fid-b15e9fd1-3ef3-4ee9-ae50-ef321eab03c4"><Style><LineStyle><color>ff0000ff</color><width>3</width></LineStyle><PolyStyle><color>55ffff55</color></PolyStyle></Style><MultiGeometry><Polygon><outerBoundaryIs><LinearRing><coordinates>128.63377214778524,35.44369173185035,0 128.6348900003973,35.44467080260414,0 128.63460843185769,35.443339674971504,0 128.6364435223263,35.44297821396699,0 128.6347027021664,35.44256433918386,0 128.63504954557038,35.44105520389238,0 128.6340652373362,35.44209705428396,0 128.63315649703034,35.44102996244539,0 128.6330162765183,35.442279003599495,0 128.63155699574938,35.44319621557807,0 128.63377214778524,35.44369173185035,0</coordinates></LinearRing></outerBoundaryIs></Polygon><Polygon><outerBoundaryIs><LinearRing><coordinates>128.64091917954124,35.443452297729955,0 128.64120449586906,35.445041523860795,0 128.64239476860695,35.44369649275107,0 128.6448178375568,35.44401773803159,0 128.64353912686744,35.44282515930408,10 128.6444731871333,35.441955808955655,20 128.64284843342566,35.4423154005579,0 128.64156006036188,35.44043449201484,0 128.6415323960848,35.44219877709706,0 128.63911484823396,35.44226463776067,0 128.64091917954124,35.443452297729955,0</coordinates></LinearRing></outerBoundaryIs></Polygon><Polygon><outerBoundaryIs><LinearRing><coordinates>128.63726095184472,35.43754936717841,0 128.63727970879333,35.43888296566084,0 128.638312869012,35.437582478639094,0 128.63947294908755,35.437829685094286,0 128.6390372735274,35.43675817124894,0 128.63992299541422,35.43619048656791,0 128.6383478718383,35.4363344233465,0 128.63728084547378,35.435225828802984,0 128.6369811870854,35.436347301771704,0 128.63530515214762,35.436793324380986,0 128.63726095184472,35.43754936717841,0</coordinates></LinearRing></outerBoundaryIs></Polygon></MultiGeometry></Placemark><Placemark id="fid-c8f24fc0-6f54-40cc-8409-e08d24abcbf8"><Style><LineStyle><color>ff0000ff</color><width>3</width></LineStyle><PolyStyle><color>55ffff55</color></PolyStyle></Style><Polygon><outerBoundaryIs><LinearRing><coordinates>128.6012952443845,35.437108349580406,0 128.60286248973233,35.440234880552445,0 128.60924622142457,35.441854374830385,0 128.61489458685912,35.43969411416782,0 128.61489458685912,35.43969411416782,0 128.60897286927693,35.43342395730237,0 128.599155709725,35.430544988488535,0 128.59460712950718,35.43626564282048,0 128.5938178730705,35.44010204013823,0 128.59445028014517,35.44409765099565,0 128.59887731812995,35.444874912420744,0 128.60275583511233,35.44397904254293,0 128.60340108533916,35.4411765125314,0 128.6012952443845,35.437108349580406,0</coordinates></LinearRing></outerBoundaryIs></Polygon></Placemark></Document></kml>